{"spkid": "50766208", "covariance": {"epoch": "2458186.5", "elements": [{"sigma": 2.31715022037979e-07, "name": "e", "units": null, "title": "eccentricity", "value": ".6265806747786762", "label": "e"}, {"label": "q", "value": ".7454601231340932", "title": "perihelion distance", "units": "au", "name": "q", "sigma": 3.39192118249078e-07}, {"label": "tp", "sigma": 1.4128064976258e-05, "name": "tp", "value": "2457831.662193352430", "title": "time of perihelion passage", "units": "TDB"}, {"label": "node", "value": "75.56784358107555", "title": "longitude of the ascending node", "units": "deg", "name": "om", "sigma": 5.12229547368651e-05}, {"name": "w", "sigma": 7.01428295674455e-05, "title": "argument of perihelion", "value": "121.113137035386", "units": "deg", "label": "peri"}, {"name": "i", "sigma": 1.14674935896989e-05, "title": "inclination", "value": "9.099572462055884", "units": "deg", "label": "i"}], "data": [["5.369185143806132E-14", "-7.839492852385494E-14", "2.011918675480723E-12", "-2.647463926202417E-12", "1.132191355776943E-11", "6.219152013266313E-13"], ["-7.839492852385494E-14", "1.150512930822962E-13", "-2.881704916005382E-12", "3.801099585801771E-12", "-1.647032179368638E-11", "-9.092377412307502E-13"], ["2.011918675480723E-12", "-2.881704916005382E-12", "1.996022199733669E-10", "-1.425200818564106E-10", "5.30194385992853E-10", "7.93088906843454E-11"], ["-2.647463926202417E-12", "3.801099585801771E-12", "-1.425200818564106E-10", "2.623791091974927E-9", "-3.047187476601403E-9", "3.361785138604444E-10"], ["1.132191355776943E-11", "-1.647032179368638E-11", "5.30194385992853E-10", "-3.047187476601403E-9", "4.920016539727703E-9", "-2.146130744674078E-10"], ["6.219152013266313E-13", "-9.092377412307502E-13", "7.93088906843454E-11", "3.361785138604444E-10", "-2.146130744674078E-10", "1.315034092297851E-10"]], "labels": ["e", "q", "tp", "node", "peri", "i"]}, "elements": [{"label": "e", "name": "e", "sigma": "2.308E-7", "value": ".6255180691815272", "title": "eccentricity", "units": null}, {"label": "a", "title": "semi-major axis", "value": "1.997651356098236", "units": "au", "sigma": "3.3443E-7", "name": "a"}, {"label": "q", "units": "au", "title": "perihelion distance", "value": ".748084336933808", "name": "q", "sigma": "3.3884E-7"}, {"sigma": "1.1476E-5", "name": "i", "units": "deg", "title": "inclination; angle with respect to x-y ecliptic plane", "value": "9.10230896926725", "label": "i"}, {"title": "longitude of the ascending node", "value": "75.47697169757349", "units": "deg", "sigma": "5.1067E-5", "name": "om", "label": "node"}, {"label": "peri", "units": "deg", "value": "121.1503681180495", "title": "argument of perihelion", "name": "w", "sigma": "6.9897E-5"}, {"name": "ma", "sigma": ".00030011", "units": "deg", "title": "mean anomaly", "value": "97.02503354834657", "label": "M"}, {"label": "tp", "value": "2460922.554741773308", "title": "time of perihelion passage", "units": "TDB", "sigma": ".00078993", "name": "tp"}, {"units": "d", "title": "sidereal orbital period", "value": "1031.283260641699", "sigma": ".00025898", "name": "per", "label": "period"}, {"sigma": "8.7661E-8", "name": "n", "title": "mean motion", "value": ".3490796503144984", "units": "deg/d", "label": "n"}, {"label": "Q", "name": "ad", "sigma": "5.4363E-7", "title": "aphelion distance", "value": "3.247218375262664", "units": "au"}], "epoch": "2461200.5"}